{
    "links": {
        "self": "http://www.neowsapp.com/rest/v1/neo/3733142?api_key=iIulBulltgU6a56xZRHN4H3l9WmuAYTsLGpBGhQ2"
    },
    "id": "3733142",
    "neo_reference_id": "3733142",
    "name": "(2015 VH1)",
    "designation": "2015 VH1",
    "nasa_jpl_url": "http://ssd.jpl.nasa.gov/sbdb.cgi?sstr=3733142",
    "absolute_magnitude_h": 27.4,
    "estimated_diameter": {
        "kilometers": {
            "estimated_diameter_min": 0.0088014652,
            "estimated_diameter_max": 0.0196806745
        },
        "meters": {
            "estimated_diameter_min": 8.801465209,
            "estimated_diameter_max": 19.6806745089
        },
        "miles": {
            "estimated_diameter_min": 0.0054689752,
            "estimated_diameter_max": 0.0122290004
        },
        "feet": {
            "estimated_diameter_min": 28.8761991163,
            "estimated_diameter_max": 64.5691441559
        }
    },
    "is_potentially_hazardous_asteroid": false,
    "close_approach_data": [
        {
            "close_approach_date": "2009-03-05",
            "close_approach_date_full": "2009-Mar-05 16:45",
            "epoch_date_close_approach": 1236271500000,
            "relative_velocity": {
                "kilometers_per_second": "9.600680644",
                "kilometers_per_hour": "34562.4503185045",
                "miles_per_hour": "21475.7625326286"
            },
            "miss_distance": {
                "astronomical": "0.0867005702",
                "lunar": "33.7265218078",
                "kilometers": "12970220.629705474",
                "miles": "8059321.3836005812"
            },
            "orbiting_body": "Mars"
        },
        {
            "close_approach_date": "2015-11-04",
            "close_approach_date_full": "2015-Nov-04 12:00",
            "epoch_date_close_approach": 1446638400000,
            "relative_velocity": {
                "kilometers_per_second": "5.0808995027",
                "kilometers_per_hour": "18291.238209802",
                "miles_per_hour": "11365.4640976406"
            },
            "miss_distance": {
                "astronomical": "0.0210720235",
                "lunar": "8.1970171415",
                "kilometers": "3152329.832189945",
                "miles": "1958766.928493441"
            },
            "orbiting_body": "Earth"
        }
    ],
    "orbital_data": {
        "orbit_id": "12",
        "orbit_determination_date": "2017-04-06 08:31:01",
        "first_observation_date": "2015-11-01",
        "last_observation_date": "2015-11-11",
        "data_arc_in_days": 10,
        "observations_used": 68,
        "orbit_uncertainty": "7",
        "minimum_orbit_intersection": ".0191885",
        "jupiter_tisserand_invariant": "4.177",
        "epoch_osculation": "2459000.5",
        "eccentricity": ".3899097045037394",
        "semi_major_axis": "1.658408643817839",
        "inclination": "1.134508592455671",
        "ascending_node_longitude": "218.6521548563778",
        "orbital_period": "780.0739153349343",
        "perihelion_distance": "1.011779019560378",
        "perihelion_argument": "178.8263194167134",
        "aphelion_distance": "2.3050382680753",
        "perihelion_time": "2458887.979459606141",
        "mean_anomaly": "51.92763627328411",
        "mean_motion": ".4614947287981416",
        "equinox": "J2000",
        "orbit_class": {
            "orbit_class_type": "APO",
            "orbit_class_description": "Near-Earth asteroid orbits which cross the Earth’s orbit similar to that of 1862 Apollo",
            "orbit_class_range": "a (semi-major axis) > 1.0 AU; q (perihelion) < 1.017 AU"
        }
    },
    "is_sentry_object": false
}